#dP2024  8  7 18  0  0.00000000      96 __u+U IGS20 EXT  IAC
## 2326 324000.00000000   900.00000000 60529 0.7500000000000
+   53   G02G03G04G05G06G07G08G09G10G11G12G13G14G15G16G17G18
+        G19G20G21G22G23G24G25G26G27G28G29G30G31G32R01R02R03
+        R04R05R07R08R09R11R12R14R15R16R17R18R19R20R21R22R24
+        R25R26  0  0  0  0  0  0  0  0  0  0  0  0  0  0  0
+          0  0  0  0  0  0  0  0  0  0  0  0  0  0  0  0  0
++         7  7 10  7  9  8  7  9  7  9  8  7  9  8  9  7  8
++         9  8  7  7  8  9  9  9  8  7  8  8  7  9  8  7  9
++        10  7  7  8  6  8  7  7  7  7  6  7 10  8  7  8  8
++         9  8  0  0  0  0  0  0  0  0  0  0  0  0  0  0  0
++         0  0  0  0  0  0  0  0  0  0  0  0  0  0  0  0  0
%c M  cc GPS ccc cccc cccc cccc cccc ccccc ccccc ccccc ccccc
%c cc cc ccc ccc cccc cccc cccc cccc ccccc ccccc ccccc ccccc
%f  0.0000000  0.000000000  0.00000000000  0.000000000000000
%f  0.0000000  0.000000000  0.00000000000  0.000000000000000
%i    0    0    0    0      0      0      0      0         0
%i    0    0    0    0      0      0      0      0         0
/* IAC                                ULTRA-RAPID PREDICTION
/* S/V CLOCKS ARE ALIGNED TO GNSS TIME                      
/* G:C1WC2W R:C1PC2P E:C1XC5X C:C2IC6I J:C1CC2S             
/* PCV:IGS20_2317 OL/AL:FES2004  NONE     YN ORB:CoN CLK:CoN
*  2024 08 07 23  0  0.00000000
PG02 -20825.851855 -10638.400375  13358.709386   -383.472591
PG03 -16117.322946   1724.063589  20849.272762    491.033120
PG04 -26366.669193  -1173.446983   3611.559380    419.716298
PG05   8924.956399  14785.827300 -20341.396366   -182.446356
PG06   1309.200772  20981.386790  16229.947053    112.698935
PG07 -14243.444596   5958.374784 -21123.179240    -55.470623
PG08 -21549.431062  -7472.940617 -14071.106920    306.805632
PG09 -24308.065685   7912.330223  -7400.546217    305.014002
PG10  10098.558562 -24314.834755   1831.826308    -87.547684
PG11  11901.926971  23516.802293   3581.729442   -718.034639
PG12  15514.601844   2440.682441  21133.681162   -528.595041
PG13  13884.055720  13449.394552 -18539.625235    669.452063
PG14 -13051.432184  22896.877010  -2063.923415    467.241291
PG15  22181.175439   5366.057518 -14248.406949    190.043448
PG16  -4759.365432 -18173.543766 -18929.036994   -214.769820
PG17 -13381.964237  13460.411613  19068.098932    660.133176
PG18  13424.057902  -6682.606706 -21915.301174   -644.198926
PG19  -3523.951811  14803.902265  21571.185853    521.492018
PG20   3501.932495  22886.672482 -13082.303736    371.920234
PG21 -20764.876243 -15448.697556   8445.173167    104.258310
PG22  -8800.925414  24422.255717   6724.563150    -48.745791
PG23  15745.781120 -18443.072694 -10551.869452    292.155915
PG24  20927.996074  12738.172176  10319.745061   -485.716980
PG25  17583.953562  -9950.673850  16769.500624    499.149753
PG26   2596.967117 -24920.998412  -8378.685181    104.961274
PG27 -11550.155882 -13192.296120 -20359.307551    -32.683212
PG28    221.635649 -20030.839068  17429.434984   -363.605464
PG29  26090.620528  -3201.439181  -4302.321518   -585.333987
PG30  -6275.706279  16389.017913 -19710.798391   -343.971053
PG31  -8869.966962 -23453.149221   7921.138391   -226.087634
PG32  10771.916376 -14660.636338  19496.007923   -607.371004
PR01  13702.336427 -15292.943714  15138.790146     93.816203
PR02  -2430.507863 -10712.276738  23058.024299    -24.028100
PR03 -18105.291537   -551.730715  18030.476439    105.213472
PR04 -23470.142458   9428.740393   3391.925045    248.882639
PR05 -16444.559053  14451.383484 -13106.006040    135.742248
PR07  18456.299817    147.837305 -17544.873355     88.332067
PR08  23335.785319  -9785.650950  -3011.546499     -6.297564
PR09   3392.025016  23773.184383   8500.490623    202.130074
PR11  10915.240532  -6440.187089  22155.017143     15.615192
PR12   5964.443021 -22963.420191   9387.061888     43.373663
PR14  -9572.317953 -11057.785300 -20886.550284     26.799683
PR15 -10916.671703   8160.490260 -21533.815350     77.075571
PR16  -5864.588556  22891.667431  -9539.745300     28.057701
PR17 -21697.366156 -12930.860269   3372.340564    111.558033
PR18 -18081.872335  -2835.542412  17799.151005    155.913311
PR19  -7152.890842   7626.981453  23263.374624   -286.744199
PR20  11987.331311  17137.895597  14587.921763   -117.316175
PR21  21537.429895  13410.512386  -2823.124491   -124.110141
PR22  17537.851465   2119.563277 -18374.381023     73.926916
PR24 -13022.077060 -16861.706311 -13993.169736    -66.906690
PR25  21288.145542  13592.201607  -3669.674378    -99.776950
PR26  23369.030186  -9191.312948  -4528.079968      8.461384
*  2024 08 07 23 15  0.00000000
PG02 -21575.787971 -11731.144172  10981.739398   -383.465807
PG03 -15187.924235   -554.089809  21601.575291    491.046797
PG04 -25819.037554  -1444.009773   6393.087532    419.723048
PG05   8056.833901  16828.808562 -19057.688062   -182.447527
PG06     73.866937  19468.255723  18079.497730    112.677272
PG07 -15705.945277   3935.229524 -20607.604078    -55.464953
PG08 -19900.959259  -7903.290610 -16093.965978    306.819061
PG09 -25015.022079   7767.726365  -4662.611578    305.027896
PG10  10300.713992 -24249.278896  -1090.752303    -87.557393
PG11  11396.005142  23177.120890   6369.343134   -718.039913
PG12  14407.401356   4683.958031  21534.473481   -528.597736
PG13  11732.973436  13490.655448 -19938.124281    669.454082
PG14 -13169.325521  22398.244080  -4863.207793    467.249187
PG15  20635.303243   6012.983430 -16230.233555    190.047319
PG16  -3662.418862 -19887.431996 -17315.501041   -214.760446
PG17 -15391.628766  13463.374547  17459.909183    660.125060
PG18  14857.441444  -4654.568616 -21530.505439   -644.201945
PG19  -5999.013736  14773.531529  21006.141465    521.496717
PG20   2979.611856  24169.028375 -10715.458644    371.919877
PG21 -21146.291208 -16104.880330   5798.891917    104.256348
PG22  -9262.494029  24809.269840   3973.178590    -48.749583
PG23  15416.780490 -17115.080395 -13004.891461    292.163763
PG24  21453.354820  13726.845514   7806.396940   -485.717800
PG25  16969.001055  -7950.947780  18384.890651    499.149994
PG26   3181.079606 -25570.328363  -5723.620841    104.954544
PG27  -9263.537542 -13541.749704 -21254.167304    -32.683753
PG28   1631.759789 -18488.143501  18988.597916   -363.619096
PG29  26422.576639  -2999.571135  -1459.672450   -585.332050
PG30  -7777.481940  14576.132230 -20597.249499   -343.965009
PG31  -8006.415893 -22724.685739  10510.009742   -226.087326
PG32  12884.101041 -14799.063946  18021.219538   -607.368644
PR01  15131.521781 -16240.221886  12576.096156     93.817252
PR02     49.545308 -12022.851087  22527.534307    -24.028270
PR03 -16002.463116  -1555.686179  19866.286490    105.214092
PR04 -22846.691360   9306.557679   6543.040706    248.884257
PR05 -17660.377371  15251.936896 -10325.227324    135.742804
PR07  16384.150765   1135.712191 -19461.831413     88.332799
PR08  22753.944699  -9657.146258  -6169.234179     -6.297553
PR09   3470.774939  24633.002213   5464.189747    202.131966
PR11  10817.305052  -3670.489678  22823.682088     15.614020
PR12   5808.045641 -21639.252367  12215.010703     43.374052
PR14  -9573.923071 -13544.509816 -19369.444191     26.799933
PR15 -10797.724691   5444.533559 -22432.734919     77.075158
PR16  -5697.781276  21539.893912 -12368.259062     28.057990
PR17 -21980.625117 -12889.325612    146.000945    111.561004
PR18 -19883.668020  -3837.293939  15548.956210    155.915058
PR19  -9507.337625   6015.381491  22888.739539   -286.745410
PR20  10482.188196  15886.638924  16972.047405   -117.316627
PR21  21773.487019  13319.733473    407.600380   -124.112980
PR22  19358.402250   3253.081215 -16261.915598     73.920207
PR24 -11495.557293 -15758.988574 -16407.293988    -66.908085
PR25  21583.480964  13614.838158   -472.233545    -99.778078
PR26  22629.944306  -8977.216647  -7633.046903      8.463192
EOF
